CUTE-1.7+APD II (CO-65) 
1 32785U 08021C   22245.67481472  .00001347  00000+0  14588-3 0  9993
2 32785  97.6647 214.1152 0012154 345.6243  14.4628 14.89802271777987
AAUSAT-II               
1 32788U 08021F   22245.86895568  .00001600  00000+0  14034-3 0  9990
2 32788  97.5395 228.4922 0009905 217.1442 142.9097 14.97971026780026
DELFI-C3 (DO-64)        
1 32789U 08021G   22246.04709423  .00005873  00000+0  31544-3 0  9997
2 32789  97.3367 269.6061 0011661  62.6555 297.5863 15.15224445783775
SEEDS II (CO-66)        
1 32791U 08021J   22245.72662937  .00001838  00000+0  18208-3 0  9991
2 32791  97.6187 219.5785 0011086 296.5099  63.4984 14.92984297778725
SWISSCUBE               
1 35932U 09051B   22245.57122059  .00000381  00000+0  95777-4 0  9993
2 35932  98.5597 103.6333 0007662 161.7069 198.4405 14.56939962687328
BEESAT-1                
1 35933U 09051C   22245.80040764  .00000233  00000+0  62662-4 0  9995
2 35933  98.5536 105.4440 0005653 170.5382 189.5923 14.56946374687438
ITUPSAT1                
1 35935U 09051E   22245.59041105  .00000299  00000+0  78885-4 0  9999
2 35935  98.5636 105.2639 0007848 178.1799 181.9427 14.56049809687109
TISAT 1                 
1 36799U 10035E   22246.12674765  .00001108  00000+0  11204-3 0  9997
2 36799  98.1750  99.6182 0011234 194.4387 165.6512 14.93166300659557
M-CUBED & EXP-1 PRIME   
1 37855U 11061F   22245.68308685  .00011289  00000+0  48251-3 0  9999
2 37855 101.7197  45.7478 0150511 190.8665 168.9288 15.13455522592910
AEROCUBE 4.5A           
1 38767U 12048K   22246.17795219  .00002589  00000+0  18776-3 0  9998
2 38767  64.6638 226.6744 0171931 241.4098 116.9625 14.95298718162404
AEROCUBE 4.5B           
1 38768U 12048L   22245.80944682  .00002383  00000+0  15859-3 0  9999
2 38768  64.6656 180.5843 0157963 236.9044 121.6825 15.00225945162754
STRAND-1                
1 39090U 13009E   22245.47000779  .00000113  00000+0  54223-4 0  9997
2 39090  98.4019  81.5869 0009963  47.2242 312.9780 14.35319027498443
BRITE-AUSTRIA           
1 39091U 13009F   22245.80444429  .00000039  00000+0  28447-4 0  9995
2 39091  98.4037  81.0925 0011451  51.9252 308.2965 14.35294893498525
SOMP                    
1 39134U 13015E   22245.85446873  .00008580  00000+0  29381-3 0  9996
2 39134  64.8607 167.5214 0035297 267.8501  91.8589 15.30229135518694
BEESAT-3                
1 39135U 13015F   22245.86521989  .00006752  00000+0  27107-3 0  9993
2 39135  64.8648 205.4680 0039490 272.8362  86.8248 15.25083636518345
BEESAT-2                
1 39136U 13015G   22245.63675833  .00008322  00000+0  34784-3 0  9991
2 39136  64.8733 214.8432 0021408 295.5895  64.3021 15.24016609517673
NEE-01 PEGASO           
1 39151U 13018B   22246.20819344  .00000827  00000+0  11323-3 0  9998
2 39151  97.9954 351.6282 0016804   8.0045 352.1432 14.81085568505193
ESTCUBE 1               
1 39161U 13021C   22245.65825297  .00000534  00000+0  90544-4 0  9993
2 39161  97.9062 320.8797 0009074 165.9991 194.1472 14.73064584500837
POPACS 1                
1 39268U 13055D   22245.46243446  .00014797  00000+0  37187-3 0  9996
2 39268  80.9979 156.5546 0561832 327.7566  29.0386 14.52740069464476
POPACS 2                
1 39269U 13055E   22245.64371887  .00006123  00000+0  16483-3 0  9998
2 39269  81.0112 215.4922 0644312 120.3919 246.2574 14.33812514461243
POPACS 3                
1 39270U 13055F   22245.97011636  .00002350  00000+0  71072-4 0  9993
2 39270  81.0117 249.4028 0685890 216.3249 138.9489 14.22525189460352
ZACUBE-1 (TSHEPISOSAT)  
1 39417U 13066B   22245.85404927  .00000760  00000+0  98230-4 0  9992
2 39417  97.6436 213.8953 0058313 149.3917 211.0721 14.82541577474593
WNISAT-1                
1 39423U 13066H   22246.08258691  .00000228  00000+0  54796-4 0  9998
2 39423  97.7415 121.8027 0172825 255.3011 102.8976 14.53552873465729
TRITON-1                
1 39427U 13066M   22246.05157414  .00001060  00000+0  17191-3 0  9992
2 39427  97.8140 178.4818 0112218  17.4280 343.0729 14.69122287470360
DELFI-N3XT              
1 39428U 13066N   22245.75303579  .00001749  00000+0  27353-3 0  9999
2 39428  97.8145 176.8004 0117999  31.3235 329.4931 14.69425290469889
GOMX-1                  
1 39430U 13066Q   22246.08975775  .00000494  00000+0  96188-4 0  9991
2 39430  97.8026 148.8382 0149324 159.5974 201.1287 14.60322323467622
CUBEBUG-2 (LO-74)       
1 39440U 13066AA  22245.88324292  .00000657  00000+0  95625-4 0  9997
2 39440  97.7321 200.2182 0076986 239.8115 119.5455 14.77209312471717
NEE-02 KRYSAOR          
1 39441U 13066AB  22245.81775877  .00000473  00000+0  72914-4 0  9992
2 39441  97.7430 197.2951 0078831 254.3949 104.8551 14.75888572471449
FUNCUBE-1 (AO-73)       
1 39444U 13066AE  22245.88072199  .00000963  00000+0  11959-3 0  9994
2 39444  97.6317 216.3378 0057413 137.1692 223.4017 14.83661205473007
UWE-3                   
1 39446U 13066AG  22245.83890105  .00000633  00000+0  87849-4 0  9992
2 39446  97.6924 206.5953 0067843 195.7182 164.1925 14.79764242471901
AEROCUBE 5A             
1 39465U 13072D   22245.84475509  .00043425  00000+0  22573-2 0  9995
2 39465 120.4849 242.3767 0187500   3.1014 357.1178 15.01802882161227
AEROCUBE 5B             
1 39466U 13072E   22246.12346416  .00084990  00000+0  22652-2 0  9992
2 39466 120.4535 340.6057 0117345  22.5350 338.0829 15.30797010162569
BRITE-CA1 (TORONTO)     
1 40020U 14033L   22246.16975405  .00000282  00000+0  55861-4 0  9990
2 40020  97.7882  41.2151 0087095  16.5662 343.8356 14.67116609439164
DUCHIFAT-1              
1 40021U 14033M   22245.81212739  .00001973  00000+0  19409-3 0  9991
2 40021  98.0176 197.4588 0013338 139.1934 221.0286 14.93244318446240
NANOSATC-BR1            
1 40024U 14033Q   22246.07971229  .00001442  00000+0  14775-3 0  9991
2 40024  97.9893 190.6853 0012585 144.6943 215.5111 14.92033241446077
QB50P1                  
1 40025U 14033R   22245.78841227  .00001202  00000+0  12806-3 0  9990
2 40025  97.9623 183.8128 0012595 155.5581 204.6236 14.90756334445280
QB50P2                  
1 40032U 14033Y   22245.77703009  .00001079  00000+0  11726-3 0  9994
2 40032  97.9383 178.8858 0012063 153.2667 206.9174 14.90163778445139
PERSEUS-M2              
1 40037U 14033AD  22245.34630085  .00000479  00000+0  59269-4 0  9993
2 40037  97.8935 167.1322 0014110 179.6842 180.4385 14.87204408444552
PERSEUS-M1              
1 40039U 14033AF  22245.76514094  .00000390  00000+0  49932-4 0  9990
2 40039  97.8831 165.1673 0014008 177.3615 182.7677 14.86811089444495
POLYITAN-1              
1 40042U 14033AJ  22245.80020472  .00001390  00000+0  14689-3 0  9992
2 40042  97.9730 185.1233 0014876 148.6285 211.5823 14.90829182445177
TIGRISAT                
1 40043U 14033AK  22246.10191311  .00000455  00000+0  73051-4 0  9998
2 40043  97.6576  71.1821 0057657 264.8489  94.6139 14.75123616441371
AEROCUBE 6A             
1 40045U 14033AM  22245.52400920  .00000629  00000+0  95241-4 0  9992
2 40045  97.6645  79.6447 0055223 253.9849 105.5275 14.76516933441151
AEROCUBE 6B             
1 40046U 14033AN  22245.48156727  .00001295  00000+0  18672-3 0  9993
2 40046  97.6563  78.0309 0054215 252.0532 107.4765 14.76937175441150
UKUBE-1                 
1 40074U 14037F   22246.21680076  .00001030  00000+0  12592-3 0  9991
2 40074  98.3705 130.9217 0005386  47.5438 312.6209 14.85612331441618
BRITE-PL2 (HEWELIUSZ)   
1 40119U 14049B   22246.22637631  .00000631  00000+0  79719-4 0  9995
2 40119  97.8844 341.0625 0016883 352.5786   7.5177 14.85251270435644
FIREBIRD 4              
1 40378U 15003C   22246.17495821  .00013893  00000+0  39329-3 0  9996
2 40378  99.0881 128.7378 0097440 120.6466 240.4421 15.31747840420322
GRIFEX                  
1 40379U 15003D   22246.13386493  .00005489  00000+0  19083-3 0  9994
2 40379  99.1015 113.7235 0113118 165.8429 194.6019 15.24366735419468
CP10 (EXOCUBE)          
1 40380U 15003E   22245.82343770  .00004482  00000+0  17150-3 0  9997
2 40380  99.1124 105.7787 0121232 192.3604 167.4647 15.20669627418916
TIANWANG 1A (TW-1A)     
1 40928U 15051D   22246.02526809  .00041374  00000+0  40897-3 0  9992
2 40928  97.0343 268.3020 0009187  98.1886 315.8189 15.65724419390356
EXACTVIEW 9             
1 40936U 15052G   22245.54818287  .00001338  00000+0  95815-4 0  9999
2 40936   6.0040 343.2775 0010244 172.1201 187.9088 14.77263494374631
AEROCUBE 5C             
1 40965U 15058B   22245.63823189  .00000482  00000+0  72335-4 0  9995
2 40965  64.7761 217.1049 0182976 175.1548 185.1386 14.75813073160351
AEROCUBE 7              
1 40966U 15058C   22246.14853933  .00000422  00000+0  65185-4 0  9992
2 40966  64.7763 212.5413 0180829 174.6241 185.6865 14.76410732160451
ATHENOXAT 1             
1 41168U 15077C   22246.15453566  .00009404  00000+0  36073-3 0  9999
2 41168  14.9861 233.7494 0008857 256.6214 183.2248 15.22514271372164
GALASSIA                
1 41170U 15077E   22245.58052321  .00009049  00000+0  35623-3 0  9997
2 41170  14.9876 229.5696 0010641 272.5493  87.3611 15.21529430371989
VELOX-II                
1 41171U 15077F   22245.55145145  .00006394  00000+0  28180-3 0  9992
2 41171  14.9917 307.1912 0007704 104.9711 255.1463 15.16632786371339
HORYU-4                 
1 41340U 16012D   22246.24645242  .00002427  00000+0  16637-3 0  9997
2 41340  31.0034 222.1658 0013323 254.6273 105.2891 15.03674334359449
E-ST@R-II               
1 41459U 16025D   22246.06789223  .00005541  00000+0  23475-3 0  9998
2 41459  98.1926  57.0880 0141229   6.1257 354.1654 15.14954352349247
AAUSAT 4                
1 41460U 16025E   22245.98866636  .00009274  00000+0  33877-3 0  9998
2 41460  98.1855  63.9602 0119872 339.6616  19.9846 15.21771457349723
BEESAT-4                
1 41619U 16040W   22245.71046673  .00007973  00000+0  25351-3 0  9995
2 41619  97.2102 294.3425 0008986 188.6563 171.4526 15.32832535332552
